ONEWEB-0689             
1 61597U 24188D   25339.16808076 -.00000249  00000+0 -73713-3 0  9999
2 61597  87.8852  59.6721 0001352 102.9552 257.1727 13.11416294 59022
ONEWEB-0690             
1 61598U 24188E   25338.64417718 -.00000536  00000+0 -15472-2 0  9997
2 61598  87.8875  59.7875 0002380  99.8230 260.3166 13.11418042 59136
ONEWEB-0691             
1 61599U 24188F   25339.17317646  .00001170  00000+0  32652-2 0  9998
2 61599  87.8839  59.5871 0001768 118.2176 241.9131 13.11415443 59055
ONEWEB-0692             
1 61600U 24188G   25339.26980657 -.00000160  00000+0 -48598-3 0  9996
2 61600  87.8860  59.7098 0001529  70.1595 289.9697 13.11419520 59050
ONEWEB-0693             
1 61601U 24188H   25339.17843800  .00000074  00000+0  15816-3 0  9994
2 61601  87.9107  44.4970 0002595 104.4052 255.7368 13.17648455 60335
ONEWEB-0695             
1 61602U 24188J   25339.16977675 -.00000260  00000+0 -76863-3 0  9990
2 61602  87.8859  59.7186 0001189  90.2602 269.8662 13.11415829 59037
ONEWEB-0697             
1 61603U 24188K   25339.27828826  .00000256  00000+0  68749-3 0  9993
2 61603  87.8860  59.6871 0001614  75.6090 284.5217 13.11421451 59039
ONEWEB-0698             
1 61604U 24188L   25339.17995254 -.00000459  00000+0 -13320-2 0  9994
2 61604  87.8858  59.7219 0002374  78.2579 281.8815 13.11415746 59044
ONEWEB-0699             
1 61605U 24188M   25339.26747248  .00000651  00000+0  18272-2 0  9996
2 61605  87.8819  74.9173 0001604  79.8253 280.3056 13.10371118 57919
ONEWEB-0700             
1 61606U 24188N   25339.26913030  .00000597  00000+0  16727-2 0  9993
2 61606  87.8824  74.8022 0000993  84.9656 275.1584 13.10370853 57904
ONEWEB-0701             
1 61607U 24188P   25339.28571893 -.00000285  00000+0 -85412-3 0  9997
2 61607  87.8814  74.9153 0001568  73.1768 286.9531 13.10369679 57910
ONEWEB-0702             
1 61608U 24188Q   25339.22576187  .00000493  00000+0  13554-2 0  9999
2 61608  87.8818  59.6012 0001304  62.5618 297.5643 13.11420291 59062
ONEWEB-0704             
1 61609U 24188R   25339.27410967  .00000372  00000+0  10299-2 0  9997
2 61609  87.8826  74.8814 0001133  67.3336 292.7911 13.10370226 57896
ONEWEB-0705             
1 61610U 24188S   25339.27908424  .00000097  00000+0  24173-3 0  9990
2 61610  87.8813  74.9032 0000570 130.8629 229.2548 13.10370395 50062
ONEWEB-0706             
1 61611U 24188T   25339.18779716  .00000695  00000+0  19560-2 0  9998
2 61611  87.8807  74.9429 0001055  87.2882 272.8366 13.10372092 57976
ONEWEB-0707             
1 61612U 24188U   25339.27079314  .00000535  00000+0  14975-2 0  9994
2 61612  87.8824  74.9032 0001095  86.3874 273.7379 13.10368331 57921
ONEWEB-0708             
1 61613U 24188V   25339.28903703 -.00000349  00000+0 -10367-2 0  9990
2 61613  87.8808  74.9356 0001216 124.7097 235.4145 13.10370796 57904
