[{"OBJECT_NAME":"ONEWEB-0689","OBJECT_ID":"2024-188D","EPOCH":"2025-12-05T04:02:02.177664","MEAN_MOTION":13.11416294,"ECCENTRICITY":0.00013525,"INCLINATION":87.8852,"RA_OF_ASC_NODE":59.6721,"ARG_OF_PERICENTER":102.9552,"MEAN_ANOMALY":257.1727,"EPHEMERIS_TYPE":0,"CLASSIFICATION_TYPE":"U","NORAD_CAT_ID":61597,"ELEMENT_SET_NO":999,"REV_AT_EPOCH":5902,"BSTAR":-0.000737134,"MEAN_MOTION_DOT":-2.49e-6,"MEAN_MOTION_DDOT":0},{"OBJECT_NAME":"ONEWEB-0690","OBJECT_ID":"2024-188E","EPOCH":"2025-12-04T15:27:36.908352","MEAN_MOTION":13.11418042,"ECCENTRICITY":0.000238,"INCLINATION":87.8875,"RA_OF_ASC_NODE":59.7875,"ARG_OF_PERICENTER":99.823,"MEAN_ANOMALY":260.3166,"EPHEMERIS_TYPE":0,"CLASSIFICATION_TYPE":"U","NORAD_CAT_ID":61598,"ELEMENT_SET_NO":999,"REV_AT_EPOCH":5913,"BSTAR":-0.0015472,"MEAN_MOTION_DOT":-5.36e-6,"MEAN_MOTION_DDOT":0},{"OBJECT_NAME":"ONEWEB-0691","OBJECT_ID":"2024-188F","EPOCH":"2025-12-05T04:09:22.446144","MEAN_MOTION":13.11415443,"ECCENTRICITY":0.00017682,"INCLINATION":87.8839,"RA_OF_ASC_NODE":59.5871,"ARG_OF_PERICENTER":118.2176,"MEAN_ANOMALY":241.9131,"EPHEMERIS_TYPE":0,"CLASSIFICATION_TYPE":"U","NORAD_CAT_ID":61599,"ELEMENT_SET_NO":999,"REV_AT_EPOCH":5905,"BSTAR":0.0032652051,"MEAN_MOTION_DOT":1.17e-5,"MEAN_MOTION_DDOT":0},{"OBJECT_NAME":"ONEWEB-0692","OBJECT_ID":"2024-188G","EPOCH":"2025-12-05T06:28:31.287648","MEAN_MOTION":13.1141952,"ECCENTRICITY":0.0001529,"INCLINATION":87.886,"RA_OF_ASC_NODE":59.7098,"ARG_OF_PERICENTER":70.1595,"MEAN_ANOMALY":289.9697,"EPHEMERIS_TYPE":0,"CLASSIFICATION_TYPE":"U","NORAD_CAT_ID":61600,"ELEMENT_SET_NO":999,"REV_AT_EPOCH":5905,"BSTAR":-0.00048598056,"MEAN_MOTION_DOT":-1.6e-6,"MEAN_MOTION_DDOT":0},{"OBJECT_NAME":"ONEWEB-0693","OBJECT_ID":"2024-188H","EPOCH":"2025-12-05T04:16:57.043200","MEAN_MOTION":13.17648455,"ECCENTRICITY":0.00025957,"INCLINATION":87.9107,"RA_OF_ASC_NODE":44.497,"ARG_OF_PERICENTER":104.4052,"MEAN_ANOMALY":255.7368,"EPHEMERIS_TYPE":0,"CLASSIFICATION_TYPE":"U","NORAD_CAT_ID":61601,"ELEMENT_SET_NO":999,"REV_AT_EPOCH":6033,"BSTAR":0.00015815716,"MEAN_MOTION_DOT":7.4e-7,"MEAN_MOTION_DDOT":0},{"OBJECT_NAME":"ONEWEB-0695","OBJECT_ID":"2024-188J","EPOCH":"2025-12-05T04:04:28.711200","MEAN_MOTION":13.11415829,"ECCENTRICITY":0.00011899,"INCLINATION":87.8859,"RA_OF_ASC_NODE":59.7186,"ARG_OF_PERICENTER":90.2602,"MEAN_ANOMALY":269.8662,"EPHEMERIS_TYPE":0,"CLASSIFICATION_TYPE":"U","NORAD_CAT_ID":61602,"ELEMENT_SET_NO":999,"REV_AT_EPOCH":5903,"BSTAR":-0.00076862849,"MEAN_MOTION_DOT":-2.6e-6,"MEAN_MOTION_DDOT":0},{"OBJECT_NAME":"ONEWEB-0697","OBJECT_ID":"2024-188K","EPOCH":"2025-12-05T06:40:44.105664","MEAN_MOTION":13.11421451,"ECCENTRICITY":0.00016146,"INCLINATION":87.886,"RA_OF_ASC_NODE":59.6871,"ARG_OF_PERICENTER":75.609,"MEAN_ANOMALY":284.5217,"EPHEMERIS_TYPE":0,"CLASSIFICATION_TYPE":"U","NORAD_CAT_ID":61603,"ELEMENT_SET_NO":999,"REV_AT_EPOCH":5903,"BSTAR":0.00068748784,"MEAN_MOTION_DOT":2.56e-6,"MEAN_MOTION_DDOT":0},{"OBJECT_NAME":"ONEWEB-0698","OBJECT_ID":"2024-188L","EPOCH":"2025-12-05T04:19:07.899456","MEAN_MOTION":13.11415746,"ECCENTRICITY":0.00023745,"INCLINATION":87.8858,"RA_OF_ASC_NODE":59.7219,"ARG_OF_PERICENTER":78.2579,"MEAN_ANOMALY":281.8815,"EPHEMERIS_TYPE":0,"CLASSIFICATION_TYPE":"U","NORAD_CAT_ID":61604,"ELEMENT_SET_NO":999,"REV_AT_EPOCH":5904,"BSTAR":-0.0013320442,"MEAN_MOTION_DOT":-4.59e-6,"MEAN_MOTION_DDOT":0},{"OBJECT_NAME":"ONEWEB-0699","OBJECT_ID":"2024-188M","EPOCH":"2025-12-05T06:25:09.622272","MEAN_MOTION":13.10371118,"ECCENTRICITY":0.0001604,"INCLINATION":87.8819,"RA_OF_ASC_NODE":74.9173,"ARG_OF_PERICENTER":79.8253,"MEAN_ANOMALY":280.3056,"EPHEMERIS_TYPE":0,"CLASSIFICATION_TYPE":"U","NORAD_CAT_ID":61605,"ELEMENT_SET_NO":999,"REV_AT_EPOCH":5791,"BSTAR":0.0018271953,"MEAN_MOTION_DOT":6.51e-6,"MEAN_MOTION_DDOT":0},{"OBJECT_NAME":"ONEWEB-0700","OBJECT_ID":"2024-188N","EPOCH":"2025-12-05T06:27:32.857920","MEAN_MOTION":13.10370853,"ECCENTRICITY":9.938e-5,"INCLINATION":87.8824,"RA_OF_ASC_NODE":74.8022,"ARG_OF_PERICENTER":84.9656,"MEAN_ANOMALY":275.1584,"EPHEMERIS_TYPE":0,"CLASSIFICATION_TYPE":"U","NORAD_CAT_ID":61606,"ELEMENT_SET_NO":999,"REV_AT_EPOCH":5790,"BSTAR":0.0016726932,"MEAN_MOTION_DOT":5.97e-6,"MEAN_MOTION_DDOT":0},{"OBJECT_NAME":"ONEWEB-0701","OBJECT_ID":"2024-188P","EPOCH":"2025-12-05T06:51:26.115552","MEAN_MOTION":13.10369679,"ECCENTRICITY":0.00015686,"INCLINATION":87.8814,"RA_OF_ASC_NODE":74.9153,"ARG_OF_PERICENTER":73.1768,"MEAN_ANOMALY":286.9531,"EPHEMERIS_TYPE":0,"CLASSIFICATION_TYPE":"U","NORAD_CAT_ID":61607,"ELEMENT_SET_NO":999,"REV_AT_EPOCH":5791,"BSTAR":-0.00085411977,"MEAN_MOTION_DOT":-2.85e-6,"MEAN_MOTION_DDOT":0},{"OBJECT_NAME":"ONEWEB-0702","OBJECT_ID":"2024-188Q","EPOCH":"2025-12-05T05:25:05.825568","MEAN_MOTION":13.11420291,"ECCENTRICITY":0.00013042,"INCLINATION":87.8818,"RA_OF_ASC_NODE":59.6012,"ARG_OF_PERICENTER":62.5618,"MEAN_ANOMALY":297.5643,"EPHEMERIS_TYPE":0,"CLASSIFICATION_TYPE":"U","NORAD_CAT_ID":61608,"ELEMENT_SET_NO":999,"REV_AT_EPOCH":5906,"BSTAR":0.00135541,"MEAN_MOTION_DOT":4.93e-6,"MEAN_MOTION_DDOT":0},{"OBJECT_NAME":"ONEWEB-0704","OBJECT_ID":"2024-188R","EPOCH":"2025-12-05T06:34:43.075488","MEAN_MOTION":13.10370226,"ECCENTRICITY":0.0001133,"INCLINATION":87.8826,"RA_OF_ASC_NODE":74.8814,"ARG_OF_PERICENTER":67.3336,"MEAN_ANOMALY":292.7911,"EPHEMERIS_TYPE":0,"CLASSIFICATION_TYPE":"U","NORAD_CAT_ID":61609,"ELEMENT_SET_NO":999,"REV_AT_EPOCH":5789,"BSTAR":0.0010298846,"MEAN_MOTION_DOT":3.72e-6,"MEAN_MOTION_DDOT":0},{"OBJECT_NAME":"ONEWEB-0705","OBJECT_ID":"2024-188S","EPOCH":"2025-12-05T06:41:52.878336","MEAN_MOTION":13.10370395,"ECCENTRICITY":5.706e-5,"INCLINATION":87.8813,"RA_OF_ASC_NODE":74.9032,"ARG_OF_PERICENTER":130.8629,"MEAN_ANOMALY":229.2548,"EPHEMERIS_TYPE":0,"CLASSIFICATION_TYPE":"U","NORAD_CAT_ID":61610,"ELEMENT_SET_NO":999,"REV_AT_EPOCH":5006,"BSTAR":0.00024172639,"MEAN_MOTION_DOT":9.7e-7,"MEAN_MOTION_DDOT":0},{"OBJECT_NAME":"ONEWEB-0706","OBJECT_ID":"2024-188T","EPOCH":"2025-12-05T04:30:25.674624","MEAN_MOTION":13.10372092,"ECCENTRICITY":0.00010552,"INCLINATION":87.8807,"RA_OF_ASC_NODE":74.9429,"ARG_OF_PERICENTER":87.2882,"MEAN_ANOMALY":272.8366,"EPHEMERIS_TYPE":0,"CLASSIFICATION_TYPE":"U","NORAD_CAT_ID":61611,"ELEMENT_SET_NO":999,"REV_AT_EPOCH":5797,"BSTAR":0.0019559933,"MEAN_MOTION_DOT":6.95e-6,"MEAN_MOTION_DDOT":0},{"OBJECT_NAME":"ONEWEB-0707","OBJECT_ID":"2024-188U","EPOCH":"2025-12-05T06:29:56.527296","MEAN_MOTION":13.10368331,"ECCENTRICITY":0.00010955,"INCLINATION":87.8824,"RA_OF_ASC_NODE":74.9032,"ARG_OF_PERICENTER":86.3874,"MEAN_ANOMALY":273.7379,"EPHEMERIS_TYPE":0,"CLASSIFICATION_TYPE":"U","NORAD_CAT_ID":61612,"ELEMENT_SET_NO":999,"REV_AT_EPOCH":5792,"BSTAR":0.0014974622,"MEAN_MOTION_DOT":5.35e-6,"MEAN_MOTION_DDOT":0},{"OBJECT_NAME":"ONEWEB-0708","OBJECT_ID":"2024-188V","EPOCH":"2025-12-05T06:56:12.799392","MEAN_MOTION":13.10370796,"ECCENTRICITY":0.00012169,"INCLINATION":87.8808,"RA_OF_ASC_NODE":74.9356,"ARG_OF_PERICENTER":124.7097,"MEAN_ANOMALY":235.4145,"EPHEMERIS_TYPE":0,"CLASSIFICATION_TYPE":"U","NORAD_CAT_ID":61613,"ELEMENT_SET_NO":999,"REV_AT_EPOCH":5790,"BSTAR":-0.0010366811,"MEAN_MOTION_DOT":-3.49e-6,"MEAN_MOTION_DDOT":0}]
